,Unnamed: 0,Url,Title,Company,Location,Last_Updated,Rent,Unit,Availability,Phone,AverageRating,# of Reviwer,WalkScore,WalkScore_desc,TransitScore,TransitScore_desc,Rent_by_room,Studio,1 Bed,2 Beds,3 Beds,4 Beds,lat,lng
0,0,https://www.apartments.com/the-alden-south-hills-apartment-homes-pittsburgh-pa/9ws6nj7/,The Alden South Hills Apartment Homes,AION Partners,"5492 Youngridge Dr, Pittsburgh, PA 15236",New,"$605 - 1,430",Studio - 3 Bed,Available Now,412-532-4826,3.6,41 Renter Reviews,48,Car-Dependent,40,Some Transit,"{'Studio': 'Call for Rent', '1 Bed': '$605 – 1,150', '2 Beds': '$705 – 1,430', '3 Beds': '$870 – 1,295'}",,877.5,1067.5,1082.5,,40.340808,-79.98152209999999
1,1,https://www.apartments.com/the-pennsylvanian-pittsburgh-pa/xtp479p/,The Pennsylvanian,Greystar,"1100 Liberty Ave, Pittsburgh, PA 15222",1 hr Ago,"$1,187 - 3,014",Studio - 2 Bed,Available Now,866-350-8444,4.9,9 Renter Reviews,88,Very Walkable,97,Rider's Paradise,"{'Studio': '$1,187 – 1,414', '1 Bed': '$1,511 – 2,456', '2 Beds': '$1,683 – 3,014'}",1300.5,1983.5,2348.5,,,40.4441942,-79.9922608
2,2,https://www.apartments.com/crane-village-apartments-pittsburgh-pa/j5zf8h7/,Crane Village Apartments,Dreyfuss Management,"651 Oaklynn Ct, Pittsburgh, PA 15220",New,"$750 - 1,415",Studio - 3 Bed,Available Now,412-253-4242,3.9,8 Renter Reviews,25,Car-Dependent,40,Some Transit,"{'Studio': '$750', '1 Bed': '$890 – 1,010', '2 Beds': '$1,210 – 1,415', '3 Beds': 'Call for Rent'}",750.0,950.0,1312.5,,,40.4151398,-80.0341199
3,3,https://www.apartments.com/city-view-pittsburgh-pa/l1d4klg/,City View,Faros Properties,"1420 Centre Ave, Pittsburgh, PA 15219",New,"$1,148 - 2,919",Studio - 2 Bed,Available Now,412-532-1007,4.8,8 Renter Reviews,89,Very Walkable,91,Rider's Paradise,"{'Studio': '$1,202 – 2,057', '1 Bed': '$1,148 – 2,239', '2 Beds': '$1,512 – 2,919'}",1629.5,1693.5,2215.5,,,40.4402101,-79.9863197
4,4,https://www.apartments.com/franklin-west-apartments-leasing-office-pittsburgh-pa/vs057fe/,"Franklin West Apartments, Leasing Office",Franklin West,"272 Shady Ave, Pittsburgh, PA 15206",New,"$730 - 2,010",Studio - 3 Bed,Available Now,844-823-6344,4.0,,94,Walker's Paradise,71,Excellent Transit,"{'Studio': '$730 – 1,110', '1 Bed': '$910 – 1,920', '2 Beds': '$1,185 – 1,735', '3 Beds': '$2,010'}",920.0,1415.0,1460.0,2010.0,,40.4572371,-79.9225927
5,5,https://www.apartments.com/carson-street-commons-pittsburgh-pa/bypghtc/,Carson Street Commons,Faros Properties,"2525-2539 E Carson St, Pittsburgh, PA 15203",New,"$1,335 - 4,315",1-2 Bed,Available Now,412-847-5472,4.9,3 Renter Reviews,86,Very Walkable,68,Good Transit,"{'1 Bed': '$1,335 – 4,315', '2 Beds': '$1,645 – 3,305'}",,2825.0,2475.0,,,40.4278116,-79.9691162
6,6,https://www.apartments.com/bear-run-village-pittsburgh-pa/k9frr2c/,Bear Run Village,,"100 Bear Run Dr, Pittsburgh, PA 15237",New,"$990 - 1,670",1-3 Bed,Available Now,724-330-4618,4.7,9 Renter Reviews,8,Car-Dependent,0,Minimal Transit,"{'1 Bed': '$990 – 1,170', '2 Beds': '$1,185 – 1,510', '3 Beds': '$1,570 – 1,670'}",,1080.0,1347.5,1620.0,,40.5486382,-80.08042789999999
7,7,https://www.apartments.com/carriage-park-apartments-pittsburgh-pa/x3e5m3m/,Carriage Park Apartments,Dreyfuss Management,"300 Chatham Park Dr, Pittsburgh, PA 15220",New,"$780 - 1,800",Studio - 3 Bed,Available Now,412-253-2894,3.9,7 Renter Reviews,25,Car-Dependent,31,Some Transit,"{'Studio': '$780 – 810', '1 Bed': '$830 – 1,035', '2 Beds': '$1,100 – 1,365', '3 Beds': '$1,730 – 1,800'}",795.0,932.5,1232.5,1765.0,,40.402777,-80.0585435
8,8,https://www.apartments.com/royal-york-pittsburgh-pa/whft4ml/,Royal York,Sterling Land Company,"3955 Bigelow Blvd, Pittsburgh, PA 15213",7 hrs Ago,"$980 - 2,550",Studio - 3 Bed,Available Now,412-253-6972,5.0,,88,Very Walkable,70,Excellent Transit,"{'Studio': '$980', '1 Bed': '$1,200 – 1,300', '2 Beds': '$1,700 – 1,830', '3 Beds': '$2,550'}",980.0,1250.0,1765.0,2550.0,,40.4529229,-79.9536756
9,9,https://www.apartments.com/park-view-apartments-pittsburgh-pa/8blhq53/,Park View Apartments,Faros Properties,"10 Allegheny Ctr, Pittsburgh, PA 15212",New,"$850 - 2,645",Studio - 2 Bed,Available Now,844-743-7158,4.5,20 Renter Reviews,88,Very Walkable,83,Excellent Transit,"{'Studio': '$850 – 2,390', '1 Bed': '$1,100 – 2,405', '2 Beds': '$1,400 – 2,645'}",1620.0,1752.5,2022.5,,,40.4518425,-80.0069024
10,10,https://www.apartments.com/parklane-apartments-pittsburgh-pa/k8k522c/,Parklane Apartments,Village Green,"5700 Bunkerhill St, Pittsburgh, PA 15206",7 hrs Ago,"$1,170 - 2,700",1-3 Bed,Available 03/12/20,844-617-0572,4.9,4 Renter Reviews,61,Somewhat Walkable,46,Some Transit,"{'1 Bed': '$1,700', '2 Beds': '$1,170 – 2,325', '3 Beds': '$2,690 – 2,700'}",,1700.0,1747.5,2695.0,,40.4792841,-79.9194674
11,11,https://www.apartments.com/oakland-apartments-pittsburgh-pa/6e8q1dr/,Oakland Apartments,Lobos Management,"4629 Bayard St, Pittsburgh, PA 15213",8 hrs Ago,"$695 - 2,690",Studio - 4 Bed,Available Now,844-291-8672,4.0,,90,Walker's Paradise,71,Excellent Transit,"{'Studio': '$695 – 995', '1 Bed': '$910 – 1,275', '2 Beds': '$1,425 – 1,725', '3 Beds': '$2,690', '4 Beds': '$1,789 – 1,899'}",845.0,1092.5,1575.0,2690.0,1844.0,40.4504005,-79.9496106
12,12,https://www.apartments.com/heinz-lofts-pittsburgh-pa/m0k293k/,Heinz Lofts,"Alterra Property Group, LLC (“Alterra”)","300 Heinz St, Pittsburgh, PA 15212",4 hrs Ago,"$1,460 - 5,085",1-3 Bed,Available Now,412-847-5081,5.0,4 Renter Reviews,72,Very Walkable,66,Good Transit,"{'1 Bed': '$1,460 – 2,530', '2 Beds': '$1,865 – 4,634', '3 Beds': '$2,325 – 5,085'}",,1995.0,3249.5,3705.0,,40.4543792,-79.9902906
13,13,https://www.apartments.com/950-northshore-pittsburgh-pa/h7865f1/,950 NORTHSHORE,Amore Management Company,"950 Progress St, Pittsburgh, PA 15212",New,"$1,240 - 2,435",Studio - 2 Bed,Available Now,844-709-6853,5.0,2 Renter Reviews,80,Very Walkable,74,Excellent Transit,"{'Studio': '$1,340 – 1,485', '1 Bed': '$1,240 – 2,135', '2 Beds': '$1,760 – 2,435'}",1412.5,1687.5,2097.5,,,40.4538812,-79.9921316
14,14,https://www.apartments.com/ridge-at-robinson-pittsburgh-pa/xlh2qsp/,Ridge at Robinson,Greystar,"1501 Meredith Dr, Pittsburgh, PA 15205",New,"$1,545 - 2,482",1-3 Bed,Available Now,412-533-5788,5.0,1 Renter Reviews,37,Car-Dependent,29,Some Transit,"{'1 Bed': '$1,555 – 1,904', '2 Beds': '$1,545 – 2,177', '3 Beds': '$1,945 – 2,482'}",,1729.5,1861.0,2213.5,,40.4422199,-80.14355619999999
15,15,https://www.apartments.com/glasshouse-pittsburgh-pittsburgh-pa/mbet9fh/,Glasshouse Pittsburgh,The Bozzuto Group,"160 E Station Square Dr, Pittsburgh, PA 15219",New,"$1,650 - 2,420",1-2 Bed,Available Now,844-765-8036,5.0,1 Renter Reviews,75,Very Walkable,86,Excellent Transit,"{'1 Bed': '$1,650 – 2,420', '2 Beds': 'Call for Rent'}",,2035.0,,,,40.4318641,-80.0011765
16,16,https://www.apartments.com/edge-1909-pittsburgh-pa/33nh2kd/,Edge 1909,"The NRP Group, LLC","1909 Waterfront Pl, Pittsburgh, PA 15222",New,"$1,459 - 8,165",1-2 Bed,Available Now,844-779-8909,5.0,4 Renter Reviews,72,Very Walkable,70,Excellent Transit,"{'1 Bed': '$1,459 – 4,162', '2 Beds': '$3,193 – 8,165'}",,2810.5,5679.0,,,40.4526459,-79.986145
17,17,https://www.apartments.com/walnut-towers-at-frick-park-pittsburgh-pa/vbe85ne/,Walnut Towers at Frick Park,Walnut Capital,"7070 Forward Ave, Pittsburgh, PA 15217",4 hrs Ago,"$1,120 - 1,995",1-2 Bed,Available Now,412-206-5629,4.9,1 Renter Reviews,27,Car-Dependent,40,Some Transit,"{'1 Bed': '$1,120 – 1,605', '2 Beds': '$1,265 – 1,995'}",,1362.5,1630.0,,,40.4267512,-79.9093142
18,18,https://www.apartments.com/king-edward-4601-apartments-pittsburgh-pa/m65jljh/,King Edward 4601 Apartments,Sterling Land Company,"4601 Bayard St, Pittsburgh, PA 15213",7 hrs Ago,"$900 - 1,830",Studio - 2 Bed,Available Now,412-727-8015,4.0,,90,Walker's Paradise,71,Excellent Transit,"{'Studio': '$900 – 1,100', '1 Bed': '$1,245 – 1,750', '2 Beds': '$1,450 – 1,830'}",1000.0,1497.5,1640.0,,,40.4502127,-79.9506159
19,19,https://www.apartments.com/the-brix-at-26-pittsburgh-pa/6zm86wt/,The Brix at 26,Hudson Companies,"75 S 26th St, Pittsburgh, PA 15203",9 hrs Ago,"$1,295 - 2,540",Studio - 2 Bed,Available Now,412-275-0805,5.0,,92,Walker's Paradise,62,Good Transit,"{'Studio': '$1,365 – 1,390', '1 Bed': '$1,295 – 2,075', '2 Beds': '$1,915 – 2,540'}",1377.5,1685.0,2227.5,,,40.4267097,-79.9684478
20,20,https://www.apartments.com/ollie-at-baumhaus-pittsburgh-pa/gxewllw/,Ollie at Baumhaus,,"5522 Baum Blvd, Pittsburgh, PA 15232",9 hrs Ago,"$1,050 - 2,156",Studio - 3 Bed,Available Now,844-762-5514,5.0,4 Renter Reviews,93,Walker's Paradise,70,Excellent Transit,"{'Studio': '$1,869', '1 Bed': '$1,739 – 2,156', '3 Beds': '$1,050'}",1869.0,1947.5,,1050.0,,40.4574633,-79.9361681
21,21,https://www.apartments.com/southside-works-city-apartments-pittsburgh-pa/2s7e9tc/,SouthSide Works City Apartments,"City Club Apartments, LLC","2626 S Tunnel Blvd, Pittsburgh, PA 15203",9 hrs Ago,"$1,270 - 3,110",Studio - 3 Bed,Available Now,412-253-6497,5.0,1 Renter Reviews,85,Very Walkable,67,Good Transit,"{'Studio': '$1,270 – 1,600', '1 Bed': '$1,615 – 1,940', '2 Beds': '$1,915 – 2,705', '3 Beds': '$2,815 – 3,110'}",1435.0,1777.5,2310.0,2962.5,,40.4287502,-79.9671267
22,22,https://www.apartments.com/the-cork-factory-lofts-pittsburgh-pa/5tcr5qn/,The Cork Factory Lofts,"GMH Associates, Inc.","2349 Railroad St, Pittsburgh, PA 15222",9 hrs Ago,"$1,653 - 3,410",1-2 Bed,Available Now,866-626-1231,5.0,2 Renter Reviews,74,Very Walkable,60,Good Transit,"{'1 Bed': '$1,653 – 2,472', '2 Beds': '$2,656 – 3,410'}",,2062.5,3033.0,,,40.4544251,-79.9830472
23,23,https://www.apartments.com/arsenal-201-pittsburgh-pa/49f41lj/,Arsenal 201,Milhaus,"3922 Foster St, Pittsburgh, PA 15201",New,"$999 - 3,184",Studio - 3 Bed,Available Now,844-831-9422,5.0,,84,Very Walkable,52,Good Transit,"{'Studio': '$999 – 1,314', '1 Bed': '$1,474 – 1,998', '2 Beds': '$2,234 – 2,649', '3 Beds': '$2,919 – 3,184'}",1156.5,1736.0,2441.5,3051.5,,40.4684448,-79.9645146
24,24,https://www.apartments.com/terminal-21-pittsburgh-pa/eqe2jvp/,Terminal 21,Milhaus,"615 First Ave, Pittsburgh, PA 15219",10 hrs Ago,"$1,200 - 2,401",Studio - 2 Bed,Available Now,412-557-7578,5.0,,87,Very Walkable,97,Rider's Paradise,"{'Studio': '$1,200 – 1,300', '1 Bed': '$1,430 – 1,695', '2 Beds': '$1,950 – 2,401'}",1250.0,1562.5,2175.5,,,40.4357912,-79.9958868
25,25,https://www.apartments.com/the-alden-south-hills-apartment-homes-pittsburgh-pa/9ws6nj7/,The Alden South Hills Apartment Homes,AION Partners,"5492 Youngridge Dr, Pittsburgh, PA 15236",New,"$605 - 1,430",Studio - 3 Bed,Available Now,412-532-4826,3.6,41 Renter Reviews,48,Car-Dependent,40,Some Transit,"{'Studio': 'Call for Rent', '1 Bed': '$605 – 1,150', '2 Beds': '$705 – 1,430', '3 Beds': '$870 – 1,295'}",,877.5,1067.5,1082.5,,40.340808,-79.98152209999999
26,26,https://www.apartments.com/the-pennsylvanian-pittsburgh-pa/xtp479p/,The Pennsylvanian,Greystar,"1100 Liberty Ave, Pittsburgh, PA 15222",1 hr Ago,"$1,187 - 3,014",Studio - 2 Bed,Available Now,866-350-8444,4.9,9 Renter Reviews,88,Very Walkable,97,Rider's Paradise,"{'Studio': '$1,187 – 1,414', '1 Bed': '$1,511 – 2,456', '2 Beds': '$1,683 – 3,014'}",1300.5,1983.5,2348.5,,,40.4441942,-79.9922608
27,27,https://www.apartments.com/crane-village-apartments-pittsburgh-pa/j5zf8h7/,Crane Village Apartments,Dreyfuss Management,"651 Oaklynn Ct, Pittsburgh, PA 15220",New,"$750 - 1,415",Studio - 3 Bed,Available Now,412-253-4242,3.9,8 Renter Reviews,25,Car-Dependent,40,Some Transit,"{'Studio': '$750', '1 Bed': '$890 – 1,010', '2 Beds': '$1,210 – 1,415', '3 Beds': 'Call for Rent'}",750.0,950.0,1312.5,,,40.4151398,-80.0341199
28,28,https://www.apartments.com/city-view-pittsburgh-pa/l1d4klg/,City View,Faros Properties,"1420 Centre Ave, Pittsburgh, PA 15219",New,"$1,148 - 2,919",Studio - 2 Bed,Available Now,412-532-1007,4.8,8 Renter Reviews,89,Very Walkable,91,Rider's Paradise,"{'Studio': '$1,202 – 2,057', '1 Bed': '$1,148 – 2,239', '2 Beds': '$1,512 – 2,919'}",1629.5,1693.5,2215.5,,,40.4402101,-79.9863197
29,29,https://www.apartments.com/franklin-west-apartments-leasing-office-pittsburgh-pa/vs057fe/,"Franklin West Apartments, Leasing Office",Franklin West,"272 Shady Ave, Pittsburgh, PA 15206",New,"$730 - 2,010",Studio - 3 Bed,Available Now,844-823-6344,4.0,,94,Walker's Paradise,71,Excellent Transit,"{'Studio': '$730 – 1,110', '1 Bed': '$910 – 1,920', '2 Beds': '$1,185 – 1,735', '3 Beds': '$2,010'}",920.0,1415.0,1460.0,2010.0,,40.4572371,-79.9225927
30,30,https://www.apartments.com/carson-street-commons-pittsburgh-pa/bypghtc/,Carson Street Commons,Faros Properties,"2525-2539 E Carson St, Pittsburgh, PA 15203",New,"$1,335 - 4,315",1-2 Bed,Available Now,412-847-5472,4.9,3 Renter Reviews,86,Very Walkable,68,Good Transit,"{'1 Bed': '$1,335 – 4,315', '2 Beds': '$1,645 – 3,305'}",,2825.0,2475.0,,,40.4278116,-79.9691162
31,31,https://www.apartments.com/bear-run-village-pittsburgh-pa/k9frr2c/,Bear Run Village,,"100 Bear Run Dr, Pittsburgh, PA 15237",New,"$990 - 1,670",1-3 Bed,Available Now,724-330-4618,4.7,9 Renter Reviews,8,Car-Dependent,0,Minimal Transit,"{'1 Bed': '$990 – 1,170', '2 Beds': '$1,185 – 1,510', '3 Beds': '$1,570 – 1,670'}",,1080.0,1347.5,1620.0,,40.5486382,-80.08042789999999
32,32,https://www.apartments.com/carriage-park-apartments-pittsburgh-pa/x3e5m3m/,Carriage Park Apartments,Dreyfuss Management,"300 Chatham Park Dr, Pittsburgh, PA 15220",New,"$780 - 1,800",Studio - 3 Bed,Available Now,412-253-2894,3.9,7 Renter Reviews,25,Car-Dependent,31,Some Transit,"{'Studio': '$780 – 810', '1 Bed': '$830 – 1,035', '2 Beds': '$1,100 – 1,365', '3 Beds': '$1,730 – 1,800'}",795.0,932.5,1232.5,1765.0,,40.402777,-80.0585435
33,33,https://www.apartments.com/royal-york-pittsburgh-pa/whft4ml/,Royal York,Sterling Land Company,"3955 Bigelow Blvd, Pittsburgh, PA 15213",7 hrs Ago,"$980 - 2,550",Studio - 3 Bed,Available Now,412-253-6972,5.0,,88,Very Walkable,70,Excellent Transit,"{'Studio': '$980', '1 Bed': '$1,200 – 1,300', '2 Beds': '$1,700 – 1,830', '3 Beds': '$2,550'}",980.0,1250.0,1765.0,2550.0,,40.4529229,-79.9536756
34,34,https://www.apartments.com/park-view-apartments-pittsburgh-pa/8blhq53/,Park View Apartments,Faros Properties,"10 Allegheny Ctr, Pittsburgh, PA 15212",New,"$850 - 2,645",Studio - 2 Bed,Available Now,844-743-7158,4.5,20 Renter Reviews,88,Very Walkable,83,Excellent Transit,"{'Studio': '$850 – 2,390', '1 Bed': '$1,100 – 2,405', '2 Beds': '$1,400 – 2,645'}",1620.0,1752.5,2022.5,,,40.4518425,-80.0069024
35,35,https://www.apartments.com/parklane-apartments-pittsburgh-pa/k8k522c/,Parklane Apartments,Village Green,"5700 Bunkerhill St, Pittsburgh, PA 15206",7 hrs Ago,"$1,170 - 2,700",1-3 Bed,Available 03/12/20,844-617-0572,4.9,4 Renter Reviews,61,Somewhat Walkable,46,Some Transit,"{'1 Bed': '$1,700', '2 Beds': '$1,170 – 2,325', '3 Beds': '$2,690 – 2,700'}",,1700.0,1747.5,2695.0,,40.4792841,-79.9194674
36,36,https://www.apartments.com/oakland-apartments-pittsburgh-pa/6e8q1dr/,Oakland Apartments,Lobos Management,"4629 Bayard St, Pittsburgh, PA 15213",8 hrs Ago,"$695 - 2,690",Studio - 4 Bed,Available Now,844-291-8672,4.0,,90,Walker's Paradise,71,Excellent Transit,"{'Studio': '$695 – 995', '1 Bed': '$910 – 1,275', '2 Beds': '$1,425 – 1,725', '3 Beds': '$2,690', '4 Beds': '$1,789 – 1,899'}",845.0,1092.5,1575.0,2690.0,1844.0,40.4504005,-79.9496106
37,37,https://www.apartments.com/heinz-lofts-pittsburgh-pa/m0k293k/,Heinz Lofts,"Alterra Property Group, LLC (“Alterra”)","300 Heinz St, Pittsburgh, PA 15212",4 hrs Ago,"$1,460 - 5,085",1-3 Bed,Available Now,412-847-5081,5.0,4 Renter Reviews,72,Very Walkable,66,Good Transit,"{'1 Bed': '$1,460 – 2,530', '2 Beds': '$1,865 – 4,634', '3 Beds': '$2,325 – 5,085'}",,1995.0,3249.5,3705.0,,40.4543792,-79.9902906
38,38,https://www.apartments.com/950-northshore-pittsburgh-pa/h7865f1/,950 NORTHSHORE,Amore Management Company,"950 Progress St, Pittsburgh, PA 15212",New,"$1,240 - 2,435",Studio - 2 Bed,Available Now,844-709-6853,5.0,2 Renter Reviews,80,Very Walkable,74,Excellent Transit,"{'Studio': '$1,340 – 1,485', '1 Bed': '$1,240 – 2,135', '2 Beds': '$1,760 – 2,435'}",1412.5,1687.5,2097.5,,,40.4538812,-79.9921316
39,39,https://www.apartments.com/ridge-at-robinson-pittsburgh-pa/xlh2qsp/,Ridge at Robinson,Greystar,"1501 Meredith Dr, Pittsburgh, PA 15205",New,"$1,545 - 2,482",1-3 Bed,Available Now,412-533-5788,5.0,1 Renter Reviews,37,Car-Dependent,29,Some Transit,"{'1 Bed': '$1,555 – 1,904', '2 Beds': '$1,545 – 2,177', '3 Beds': '$1,945 – 2,482'}",,1729.5,1861.0,2213.5,,40.4422199,-80.14355619999999
40,40,https://www.apartments.com/glasshouse-pittsburgh-pittsburgh-pa/mbet9fh/,Glasshouse Pittsburgh,The Bozzuto Group,"160 E Station Square Dr, Pittsburgh, PA 15219",New,"$1,650 - 2,420",1-2 Bed,Available Now,844-765-8036,5.0,1 Renter Reviews,75,Very Walkable,86,Excellent Transit,"{'1 Bed': '$1,650 – 2,420', '2 Beds': 'Call for Rent'}",,2035.0,,,,40.4318641,-80.0011765
41,41,https://www.apartments.com/edge-1909-pittsburgh-pa/33nh2kd/,Edge 1909,"The NRP Group, LLC","1909 Waterfront Pl, Pittsburgh, PA 15222",New,"$1,459 - 8,165",1-2 Bed,Available Now,844-779-8909,5.0,4 Renter Reviews,72,Very Walkable,70,Excellent Transit,"{'1 Bed': '$1,459 – 4,162', '2 Beds': '$3,193 – 8,165'}",,2810.5,5679.0,,,40.4526459,-79.986145
42,42,https://www.apartments.com/walnut-towers-at-frick-park-pittsburgh-pa/vbe85ne/,Walnut Towers at Frick Park,Walnut Capital,"7070 Forward Ave, Pittsburgh, PA 15217",4 hrs Ago,"$1,120 - 1,995",1-2 Bed,Available Now,412-206-5629,4.9,1 Renter Reviews,27,Car-Dependent,40,Some Transit,"{'1 Bed': '$1,120 – 1,605', '2 Beds': '$1,265 – 1,995'}",,1362.5,1630.0,,,40.4267512,-79.9093142
43,43,https://www.apartments.com/king-edward-4601-apartments-pittsburgh-pa/m65jljh/,King Edward 4601 Apartments,Sterling Land Company,"4601 Bayard St, Pittsburgh, PA 15213",7 hrs Ago,"$900 - 1,830",Studio - 2 Bed,Available Now,412-727-8015,4.0,,90,Walker's Paradise,71,Excellent Transit,"{'Studio': '$900 – 1,100', '1 Bed': '$1,245 – 1,750', '2 Beds': '$1,450 – 1,830'}",1000.0,1497.5,1640.0,,,40.4502127,-79.9506159
44,44,https://www.apartments.com/the-brix-at-26-pittsburgh-pa/6zm86wt/,The Brix at 26,Hudson Companies,"75 S 26th St, Pittsburgh, PA 15203",9 hrs Ago,"$1,295 - 2,540",Studio - 2 Bed,Available Now,412-275-0805,5.0,,92,Walker's Paradise,62,Good Transit,"{'Studio': '$1,365 – 1,390', '1 Bed': '$1,295 – 2,075', '2 Beds': '$1,915 – 2,540'}",1377.5,1685.0,2227.5,,,40.4267097,-79.9684478
45,45,https://www.apartments.com/ollie-at-baumhaus-pittsburgh-pa/gxewllw/,Ollie at Baumhaus,,"5522 Baum Blvd, Pittsburgh, PA 15232",9 hrs Ago,"$1,050 - 2,156",Studio - 3 Bed,Available Now,844-762-5514,5.0,4 Renter Reviews,93,Walker's Paradise,70,Excellent Transit,"{'Studio': '$1,869', '1 Bed': '$1,739 – 2,156', '3 Beds': '$1,050'}",1869.0,1947.5,,1050.0,,40.4574633,-79.9361681
46,46,https://www.apartments.com/southside-works-city-apartments-pittsburgh-pa/2s7e9tc/,SouthSide Works City Apartments,"City Club Apartments, LLC","2626 S Tunnel Blvd, Pittsburgh, PA 15203",9 hrs Ago,"$1,270 - 3,110",Studio - 3 Bed,Available Now,412-253-6497,5.0,1 Renter Reviews,85,Very Walkable,67,Good Transit,"{'Studio': '$1,270 – 1,600', '1 Bed': '$1,615 – 1,940', '2 Beds': '$1,915 – 2,705', '3 Beds': '$2,815 – 3,110'}",1435.0,1777.5,2310.0,2962.5,,40.4287502,-79.9671267
47,47,https://www.apartments.com/the-cork-factory-lofts-pittsburgh-pa/5tcr5qn/,The Cork Factory Lofts,"GMH Associates, Inc.","2349 Railroad St, Pittsburgh, PA 15222",9 hrs Ago,"$1,653 - 3,410",1-2 Bed,Available Now,866-626-1231,5.0,2 Renter Reviews,74,Very Walkable,60,Good Transit,"{'1 Bed': '$1,653 – 2,472', '2 Beds': '$2,656 – 3,410'}",,2062.5,3033.0,,,40.4544251,-79.9830472
48,48,https://www.apartments.com/arsenal-201-pittsburgh-pa/49f41lj/,Arsenal 201,Milhaus,"3922 Foster St, Pittsburgh, PA 15201",New,"$999 - 3,184",Studio - 3 Bed,Available Now,844-831-9422,5.0,,84,Very Walkable,52,Good Transit,"{'Studio': '$999 – 1,314', '1 Bed': '$1,474 – 1,998', '2 Beds': '$2,234 – 2,649', '3 Beds': '$2,919 – 3,184'}",1156.5,1736.0,2441.5,3051.5,,40.4684448,-79.9645146
49,49,https://www.apartments.com/terminal-21-pittsburgh-pa/eqe2jvp/,Terminal 21,Milhaus,"615 First Ave, Pittsburgh, PA 15219",10 hrs Ago,"$1,200 - 2,401",Studio - 2 Bed,Available Now,412-557-7578,5.0,,87,Very Walkable,97,Rider's Paradise,"{'Studio': '$1,200 – 1,300', '1 Bed': '$1,430 – 1,695', '2 Beds': '$1,950 – 2,401'}",1250.0,1562.5,2175.5,,,40.4357912,-79.9958868
50,50,https://www.apartments.com/the-ashby-at-south-hills-village-station-pittsburgh-pa/gdcp1px/,The Ashby at South Hills Village Station,Lincoln Property Company,"1100 Village Dr, Pittsburgh, PA 15241",New,"$1,200 - 5,162",1-3 Bed,Available Now,703-635-7163,5.0,43 Renter Reviews,48,Car-Dependent,52,Good Transit,"{'1 Bed': '$1,200 – 2,590', '2 Beds': '$1,665 – 3,729', '3 Beds': '$2,024 – 5,162'}",,1895.0,2697.0,3593.0,,40.3387827,-80.0557049
51,51,https://www.apartments.com/brentmoor-at-penn-center-pittsburgh-pa/f01j4rr/,Brentmoor at Penn Center,Brookview Realty Group,"1100 Penn Center Blvd, Pittsburgh, PA 15235",New,"$790 - 1,395",Studio - 2 Bed,Available Now,888-864-7816,4.1,17 Renter Reviews,35,Car-Dependent,30,Some Transit,"{'Studio': '$790', '1 Bed': '$855 – 880', '2 Beds': '$940 – 1,395'}",790.0,867.5,1167.5,,,40.424957,-79.813581
52,52,https://www.apartments.com/the-revival-on-carson-pittsburgh-pa/csyjvqd/,The Revival on Carson,Millcraft Investments,"1700 E Carson St, Pittsburgh, PA 15203",1 day Ago,"$1,200 - 2,490",1-2 Bed,Available 06/01/20,412-336-8107,5.0,,98,Walker's Paradise,66,Good Transit,"{'1 Bed': '$1,200 – 1,695', '2 Beds': '$1,695 – 2,490'}",,1447.5,2092.5,,,40.4285625,-79.98182179999999
53,53,https://www.apartments.com/hyland-hills-apartments-pittsburgh-pa/qhg5jyw/,Hyland Hills Apartments,Phillips & Associates Development Co.,"275 Oakville Dr, Pittsburgh, PA 15220",1 day Ago,"$835 - 1,325",1-3 Bed,Available 03/07/20,844-829-9060,4.0,5 Renter Reviews,16,Car-Dependent,37,Some Transit,"{'1 Bed': '$835', '2 Beds': '$960 – 1,175', '3 Beds': '$1,325'}",,835.0,1067.5,1325.0,,40.4190622,-80.0378589
54,54,https://www.apartments.com/chestnut-ridge-apartments-pittsburgh-pa/thnezhc/,Chestnut Ridge Apartments,,"3200 Chestnut Ridge Dr, Pittsburgh, PA 15205",1 day Ago,"$940 - 1,390",1-2 Bed,Available Now,844-519-0580,5.0,,29,Car-Dependent,26,Some Transit,"{'1 Bed': '$940 – 1,067', '2 Beds': '$1,120 – 1,390'}",,1003.5,1255.0,,,40.4361014,-80.1492825
55,55,https://www.apartments.com/north-pointe-commons-pittsburgh-pa/elz83gm/,North Pointe Commons,,"100 Park Plaza Dr, Pittsburgh, PA 15229",1 day Ago,"$960 - 1,280",1-2 Bed,Available Now,844-654-1244,4.0,3 Renter Reviews,55,Somewhat Walkable,39,Some Transit,"{'1 Bed': '$960 – 1,090', '2 Beds': '$1,100 – 1,280'}",,1025.0,1190.0,,,40.5155581,-80.033063
56,56,https://www.apartments.com/holiday-park-apartments-and-townhomes-pittsburgh-pa/l6dpyve/,Holiday Park Apartments and Townhomes,,"80 Sandune Dr, Pittsburgh, PA 15239",1 day Ago,"$787 - 1,566",Studio - 3 Bed,Available Now,844-876-0498,4.0,3 Renter Reviews,40,Car-Dependent,21,Minimal Transit,"{'Studio': '$787', '1 Bed': '$796 – 838', '2 Beds': '$821 – 1,146', '3 Beds': '$1,007 – 1,566'}",787.0,817.0,983.5,1286.5,,40.46329619999999,-79.7042546
57,57,https://www.apartments.com/forbes-management-apartments-leasing-office-pittsburgh-pa/b07k4dc/,"Forbes Management Apartments, Leasing Office",,"6230 Fifth Ave, Pittsburgh, PA 15232",2 days Ago,"$855 - 2,340",1-4 Bed,Available 07/01/20,844-352-6804,4.0,,97,Walker's Paradise,72,Excellent Transit,"{'1 Bed': '$855 – 1,245', '2 Beds': '$1,349 – 2,069', '4 Beds': '$2,340'}",,1050.0,1709.0,,2340.0,40.4525162,-79.9211432
58,58,https://www.apartments.com/oak-hill-apartments-pittsburgh-pa/m4pz40l/,Oak Hill Apartments,Corcoran Jennison Management,"475 Garner Ct, Pittsburgh, PA 15213",6 days Ago,"$1,100 - 1,650",Studio - 2 Bed,Available Now,844-209-9199,4.9,4 Renter Reviews,70,Very Walkable,72,Excellent Transit,"{'Studio': '$1,100', '1 Bed': '$1,225 – 1,240', '2 Beds': '$1,525 – 1,650'}",1100.0,1232.5,1587.5,,,40.4428291,-79.9707202
59,59,https://www.apartments.com/sk-management-pittsburgh-pa/m11s1dl/,Sk Management,,"795-10 Pine Valley Dr, Pittsburgh, PA 15239",1 wk Ago,"$645 - 1,055",1-3 Bed,Available Now,844-624-7513,3.0,,30,Car-Dependent,21,Minimal Transit,"{'1 Bed': '$645', '2 Beds': '$670 – 1,055', '3 Beds': '$790 – 905'}",,645.0,862.5,847.5,,40.45567610000001,-79.7115443
60,60,https://www.apartments.com/castle-ridge-apartments-pittsburgh-pa/rn8xhw1/,Castle Ridge Apartments,Phillips & Associates Development Co.,"850 Baldwin St, Pittsburgh, PA 15234",1 wk Ago,"$1,100 - 1,590",1-2 Bed,Available Now,844-253-6725,5.0,1 Renter Reviews,43,Car-Dependent,53,Good Transit,"{'1 Bed': '$1,100', '2 Beds': '$1,375 – 1,590'}",,1100.0,1482.5,,,40.36523740000001,-80.0333635
61,61,https://www.apartments.com/kaufmanns-grand-on-fifth-avenue-pittsburgh-pa/db3d2xh/,Kaufmann's Grand on Fifth Avenue,Core Realty,"400 5th Ave, Pittsburgh, PA 15219",2 wks Ago,"$1,596 - 2,446",1-2 Bed,Available Now,844-459-8552,5.0,2 Renter Reviews,99,Walker's Paradise,100,Rider's Paradise,"{'1 Bed': '$1,596 – 1,868', '2 Beds': '$2,446'}",,1732.0,2446.0,,,40.4395075,-79.99831859999999
62,62,https://www.apartments.com/emerald-gardens-pittsburgh-pa/2gw33r9/,Emerald Gardens,Tryko Partners,"2400 Village Rd, Pittsburgh, PA 15205",2 wks Ago,"$895 - 1,200",1-3 Bed,Available Now,412-533-5758,4.9,14 Renter Reviews,17,Car-Dependent,41,Some Transit,"{'1 Bed': '$895 – 950', '2 Beds': '$980 – 1,175', '3 Beds': '$1,115 – 1,200'}",,922.5,1077.5,1157.5,,40.44904750000001,-80.07662049999999
63,63,https://www.apartments.com/crossroad-towers-pittsburgh-pa/knydk2c/,Crossroad Towers,A. R. Building Company,"200 Sophia Ave, Pittsburgh, PA 15236",2 wks Ago,"$765 - 1,335",Studio - 2 Bed,Available Soon,844-497-9386,5.0,,53,Somewhat Walkable,42,Some Transit,"{'Studio': '$765', '1 Bed': '$1,025', '2 Beds': '$1,335'}",765.0,1025.0,1335.0,,,40.3418916,-79.96914699999999
64,64,https://www.apartments.com/briaridge-apartments-pittsburgh-pa/0txlbx2/,Briaridge Apartments,Catranel Realty,"100 Briaridge Dr, Pittsburgh, PA 15145",2 wks Ago,$695 - 975,1-2 Bed,Available Soon,877-861-1365,4.0,2 Renter Reviews,32,Car-Dependent,18,Minimal Transit,"{'1 Bed': '$695 – 775', '2 Beds': '$850 – 975'}",,735.0,912.5,,,40.4265976,-79.8336315
65,65,https://www.apartments.com/kennedy-highlands-mckees-rocks-pa/3r71yrf/,Kennedy Highlands,A. R. Building Company,"200 Adams Dr, Mckees Rocks, PA 15136",New,"$960 - 1,695",1-3 Bed,Available Now,412-587-4923,5.0,5 Renter Reviews,39,Car-Dependent,33,Some Transit,"{'1 Bed': '$960 – 1,220', '2 Beds': '$1,240 – 1,620', '3 Beds': '$1,670 – 1,695'}",,1090.0,1430.0,1682.5,,40.4652392,-80.0989361
66,66,https://www.apartments.com/bryn-mawr-pittsburgh-pa/4zpghnk/,Bryn Mawr,McKinney Properties,"100 Bryn Mawr Ct, Pittsburgh, PA 15221",4 hrs Ago,"$930 - 1,399",1-2 Bed,Available 03/19/20,888-863-7811,4.0,,15,Car-Dependent,38,Some Transit,"{'1 Bed': '$930 – 1,040', '2 Beds': '$1,296 – 1,399'}",,985.0,1347.5,,,40.4346274,-79.86536799999999
67,67,https://www.apartments.com/shadyside-commons-pittsburgh-pa/f0n2tvs/,Shadyside Commons,Reinhold Residential,"401 Amberson Ave, Pittsburgh, PA 15232",New,"$1,645 - 2,135",1-2 Bed,Available Now,412-208-4328,5.0,,75,Very Walkable,73,Excellent Transit,"{'1 Bed': '$1,645 – 2,135', '2 Beds': 'Call for Rent'}",,1890.0,,,,40.4531841,-79.9408445
68,68,https://www.apartments.com/the-cascades-apartments-townhomes-pittsburgh-pa/11c4bh4/,The Cascades Apartments & Townhomes,Morgan Properties,"100 E West Dr, Pittsburgh, PA 15237",New,"$835 - 1,549",1-2 Bed,Available Now,844-476-3520,3.9,5 Renter Reviews,2,Car-Dependent,42,Some Transit,"{'1 Bed': '$835 – 1,131', '2 Beds': '$1,090 – 1,549'}",,983.0,1319.5,,,40.5068471,-80.0210108
69,69,https://www.apartments.com/the-gateway-at-summerset-pittsburgh-pa/dhw10rh/,The Gateway at Summerset,Pennrose Management Company,"1876 Parkview Blvd, Pittsburgh, PA 15217",New,"$1,612 - 2,804",1-2 Bed,Available 03/21/20,844-228-9323,4.9,7 Renter Reviews,46,Car-Dependent,50,Good Transit,"{'1 Bed': '$1,612 – 2,074', '2 Beds': '$1,987 – 2,804'}",,1843.0,2395.5,,,40.4147379,-79.9215705
70,70,https://www.apartments.com/city-vista-pittsburgh-pa/f57j5yv/,City Vista,"Preferred Apartment Communities, Inc.","325 Elizabeth Dr, Pittsburgh, PA 15220",4 hrs Ago,"$1,239 - 5,051",Studio - 3 Bed,Available Now,877-893-2069,4.7,19 Renter Reviews,19,Car-Dependent,33,Some Transit,"{'Studio': '$1,239 – 2,758', '1 Bed': '$1,289 – 3,099', '2 Beds': '$1,394 – 2,755', '3 Beds': '$1,818 – 5,051'}",1998.5,2194.0,2074.5,3434.5,,40.4269824,-80.0362483
71,71,https://www.apartments.com/bakery-living-orange-pittsburgh-pa/3qd9wgf/,Bakery Living Orange,Walnut Capital,"6350 Penn Ave, Pittsburgh, PA 15206",New,"$1,330 - 3,970",Studio - 2 Bed,Available Now,844-814-2588,5.0,2 Renter Reviews,81,Very Walkable,70,Excellent Transit,"{'Studio': '$1,330 – 1,860', '1 Bed': '$1,890 – 2,850', '2 Beds': '$2,240 – 3,970'}",1595.0,2370.0,3105.0,,,40.458585,-79.9190303
72,72,https://www.apartments.com/white-oaks-pittsburgh-pa/164zln7/,White Oaks,Prudential Realty Company,"600 Stevens Dr, Pittsburgh, PA 15237",New,$717 - 937,1-2 Bed,Available Now,844-828-0716,4.0,1 Renter Reviews,26,Car-Dependent,30,Some Transit,"{'1 Bed': '$717 – 902', '2 Beds': '$847 – 937'}",,809.5,892.0,,,40.509175,-80.001015
73,73,https://www.apartments.com/nineteen-north-apartments-townhomes-pittsburgh-pa/g7clc8y/,Nineteen North Apartments & Townhomes,Morgan Properties,"1050 Nineteen North Dr, Pittsburgh, PA 15237",4 hrs Ago,"$680 - 2,219",1-3 Bed,Available Now,844-278-7061,4.6,9 Renter Reviews,15,Car-Dependent,0,Minimal Transit,"{'1 Bed': '$680 – 1,074', '2 Beds': '$1,050 – 1,649', '3 Beds': '$1,745 – 2,219'}",,877.0,1349.5,1982.0,,40.56715,-80.03975020000001
74,74,https://www.apartments.com/the-yards-at-3-crossings-pittsburgh-pa/qeqhmgz/,The Yards at 3 Crossings,Oxford Development Company,"2645 Railroad St, Pittsburgh, PA 15222",4 hrs Ago,"$1,570 - 3,729",Studio - 2 Bed,Available Now,844-750-1008,5.0,,75,Very Walkable,59,Good Transit,"{'Studio': '$1,570 – 2,106', '1 Bed': '$1,905 – 2,938', '2 Beds': '$2,695 – 3,729'}",1838.0,2421.5,3212.0,,,40.4572262,-79.97994039999999
75,75,https://www.apartments.com/the-foundry-at-41st-pittsburgh-pa/3n08zge/,The Foundry at 41st,Walnut Capital,"4107 Willow St, Pittsburgh, PA 15201",New,"$1,348 - 3,058",Studio - 2 Bed,Available Now,412-437-2173,5.0,,75,Very Walkable,50,Good Transit,"{'Studio': '$1,348 – 1,913', '1 Bed': '$1,993 – 2,908', '2 Beds': '$2,303 – 3,058'}",1630.5,2450.5,2680.5,,,40.4722104,-79.96433979999999
76,76,https://www.apartments.com/park-west-205-apartment-homes-pittsburgh-pa/c78f3bf/,Park West 205 Apartment Homes,Morgan Properties,"1000 Park West Place, Pittsburgh, PA 15205",New,"$1,380 - 2,930",1-3 Bed,Available Now,888-783-7919,5.0,1 Renter Reviews,30,Car-Dependent,0,Minimal Transit,"{'1 Bed': '$1,380 – 2,008', '2 Beds': '$1,640 – 2,473', '3 Beds': '$2,215 – 2,930'}",,1694.0,2056.5,2572.5,,40.4322656,-80.1409734
77,77,https://www.apartments.com/fifth-avenue-school-lofts-pittsburgh-pa/0jb5cg0/,Fifth Avenue School Lofts,Steiner Realty,"1800 Fifth Ave, Pittsburgh, PA 15219",New,"$1,220 - 2,200",1-2 Bed,Available Now,844-202-0680,5.0,1 Renter Reviews,84,Very Walkable,81,Excellent Transit,"{'1 Bed': '$1,220 – 1,400', '2 Beds': '$1,580 – 2,200'}",,1310.0,1890.0,,,40.4382212,-79.9806083
78,78,https://www.apartments.com/eighth-and-penn-pittsburgh-pa/bmw0rqb/,Eighth and Penn,Trek Development Group,"711-713 Penn Ave, Pittsburgh, PA 15222",9 hrs Ago,"$1,280 - 3,170",Studio - 2 Bed,Available Now,412-748-1949,5.0,,99,Walker's Paradise,100,Rider's Paradise,"{'Studio': '$1,280 – 2,100', '1 Bed': '$1,315 – 2,100', '2 Beds': '$2,000 – 3,170'}",1690.0,1707.5,2585.0,,,40.4436105,-79.9997975
79,79,https://www.apartments.com/cosmopolitan-apartment-homes-pittsburgh-pa/zrfq8ex/,Cosmopolitan Apartment Homes,AION Partners,"3001 McKnight East Dr, Pittsburgh, PA 15237",9 hrs Ago,"$1,300 - 2,265",1-2 Bed,Available 03/11/20,412-499-3576,5.0,2 Renter Reviews,48,Car-Dependent,33,Some Transit,"{'1 Bed': '$1,300 – 1,990', '2 Beds': '$1,620 – 2,265'}",,1645.0,1942.5,,,40.5373247,-80.0077699
80,80,https://www.apartments.com/the-encore-on-7th-apartments-pittsburgh-pa/emw3glm/,The Encore on 7th Apartments,Lincoln Property Company,"100 7th St, Pittsburgh, PA 15222",New,"$1,715 - 2,353",1-2 Bed,Available 03/09/20,888-843-1690,5.0,28 Renter Reviews,99,Walker's Paradise,100,Rider's Paradise,"{'1 Bed': '$1,715 – 2,353', '2 Beds': 'Call for Rent'}",,2034.0,,,,40.4441683,-80.0009991
81,81,https://www.apartments.com/river-vue-pittsburgh-pa/6ee0v3r/,River Vue,Millcraft Investments,"300 Liberty Ave, Pittsburgh, PA 15222",New,"$1,320 - 5,995",Studio - 3 Bed,Available Now,412-345-8286,5.0,2 Renter Reviews,93,Walker's Paradise,100,Rider's Paradise,"{'Studio': '$1,320 – 1,770', '1 Bed': '$1,370 – 2,775', '2 Beds': '$2,375 – 4,995', '3 Beds': '$5,995'}",1545.0,2072.5,3685.0,5995.0,,40.4405619,-80.00619739999999
82,82,https://www.apartments.com/schenley-apartments-pittsburgh-pa/h2wzm10/,Schenley Apartments,PMC Property Group,"4101 Bigelow Blvd, Pittsburgh, PA 15213",2 days Ago,"$2,150 - 2,650",2 Bed,Available Now,412-307-7720,5.0,1 Renter Reviews,86,Very Walkable,71,Excellent Transit,"{'2 Beds': '$2,150 – 2,650'}",,,2400.0,,,40.4503127,-79.9544623
83,83,https://www.apartments.com/the-residences-at-the-historic-alcoa-building-pittsburgh-pa/be0c4j8/,The Residences at the Historic Alcoa Building,PMC Property Group,"611 William Penn Pl, Pittsburgh, PA 15219",5 days Ago,"$1,425 - 3,750",1-2 Bed,Available Now,412-620-6372,5.0,,98,Walker's Paradise,100,Rider's Paradise,"{'1 Bed': '$1,425 – 1,550', '2 Beds': '$1,995 – 3,750'}",,1487.5,2872.5,,,40.4414818,-79.9965325
84,84,https://www.apartments.com/bower-hill-iii-pittsburgh-pa/7g9bhqz/,Bower Hill III,DBC Group,"1170 Bower Hill Rd, Pittsburgh, PA 15243",5 days Ago,"$850 - 1,575",1-3 Bed,Available Now,412-249-9087,4.9,7 Renter Reviews,18,Car-Dependent,33,Some Transit,"{'1 Bed': '$850 – 895', '2 Beds': '$1,325 – 1,395', '3 Beds': '$1,500 – 1,575'}",,872.5,1360.0,1537.5,,40.3767735,-80.0724522
85,85,https://www.apartments.com/market-square-place-pittsburgh-pa/kzem0mc/,Market Square Place,Millcraft Investments,"211 Forbes Ave, Pittsburgh, PA 15222",1 wk Ago,"$1,390 - 3,725",Studio - 2 Bed,Available Now,844-885-7665,5.0,1 Renter Reviews,99,Walker's Paradise,100,Rider's Paradise,"{'Studio': '$1,555 – 2,800', '1 Bed': '$1,390 – 2,728', '2 Beds': '$2,060 – 3,725'}",2177.5,2059.0,2892.5,,,40.4406566,-80.00189519999999
86,86,https://www.apartments.com/alcoma-on-the-green-pittsburgh-pa/rz7e4n1/,Alcoma on the Green,DBC Group,"225 Alcoma Blvd, Pittsburgh, PA 15235",1 wk Ago,$675 - 835,1-2 Bed,Available Now,412-423-5108,4.0,,12,Car-Dependent,28,Some Transit,"{'1 Bed': '$675', '2 Beds': '$810 – 835'}",,675.0,822.5,,,40.4852781,-79.80003789999999
87,87,https://www.apartments.com/one-on-centre-pittsburgh-pa/p2phsns/,,Greystar,"4500 Centre Ave, Pittsburgh, PA 15213",1 wk Ago,"$1,164 - 1,745",1-2 Bed,Available Now,412-533-2310,5.0,2 Renter Reviews,87,Very Walkable,71,Excellent Transit,"{'1 Bed': '$1,745', '2 Beds': '$1,164'}",,1745.0,1164.0,,,40.45128589999999,-79.9529762
88,88,https://www.apartments.com/century-building-pittsburgh-pa/4kyz3ej/,Century Building,Trek Development Group,"130 7th St, Pittsburgh, PA 15222",2 wks Ago,"$1,350 - 1,840",1-2 Bed,Available Soon,844-586-2302,5.0,3 Renter Reviews,99,Walker's Paradise,100,Rider's Paradise,"{'1 Bed': '$1,350', '2 Beds': '$1,805 – 1,840'}",,1350.0,1822.5,,,40.4436426,-80.0007217
89,89,https://www.apartments.com/aria-cultural-district-lofts-pittsburgh-pa/lrkw6fe/,Aria Cultural District Lofts,Aria Cultural District Lofts,"121 7th St, Pittsburgh, PA 15222",2 wks Ago,"$1,450 - 1,675",1 Bed,Available Soon,844-723-3301,5.0,,99,Walker's Paradise,100,Rider's Paradise,"{'1 Bed': '$1,450 – 1,675'}",,1562.5,,,,40.4440719,-80.0003438
90,90,https://www.apartments.com/lot-24-apartments-pittsburgh-pa/gd6mkey/,Lot 24 Apartments,"GMH Associates, Inc.","2404 Railroad St, Pittsburgh, PA 15222",2 wks Ago,"$1,571 - 2,384",1-2 Bed,Not Available,412-567-4141,5.0,,78,Very Walkable,60,Good Transit,"{'1 Bed': '$1,571 – 1,765', '2 Beds': '$2,227 – 2,384'}",,1668.0,2305.5,,,40.4548142,-79.9816445
91,91,https://www.apartments.com/930-penn-ave-pittsburgh-pa/b91lvx8/,930 Penn Ave,,"930 Penn Ave, Pittsburgh, PA 15222",2 wks Ago,"$2,560 - 3,000",2 Bed,Available Soon,844-855-0753,4.0,,98,Walker's Paradise,100,Rider's Paradise,"{'2 Beds': '$2,560 – 3,000'}",,,2780.0,,,40.4438464,-79.9968489
92,92,https://www.apartments.com/perrytown-place-apartments-pittsburgh-pa/bqx2848/,Perrytown Place Apartments,,"101 Highland Pines Dr, Pittsburgh, PA 15237",2 wks Ago,$715 - 895,Studio - 1 Bed,Available Soon,844-579-8731,4.0,,65,Somewhat Walkable,0,Minimal Transit,"{'Studio': '$715 – 780', '1 Bed': '$765 – 895'}",747.5,830.0,,,,40.5490859,-80.0381996
93,93,https://www.apartments.com/print-shop-lofts-pittsburgh-pa/56bvlsp/,Print Shop Lofts,"412Living, LLC","3010 Jane St, Pittsburgh, PA 15203",9 hrs Ago,"$1,385 - 2,300",1-3 Bed,,412-307-8268,5.0,,80,Very Walkable,48,Some Transit,"{'1 Bed': '$1,385 – 2,100', '2 Beds': '$1,800 – 2,300', '3 Beds': '$2,300'}",,1742.5,2050.0,2300.0,,40.4229692,-79.9647008
94,94,https://www.apartments.com/hamilton-place-pittsburgh-pa/tl3qth9/,Hamilton Place,A. R. Building Company,"100 Addie Ct, Pittsburgh, PA 15234",1 day Ago,"$1,055 - 1,375",1-2 Bed,,724-453-4240,,,41,Car-Dependent,53,Good Transit,"{'1 Bed': '$1,055 – 1,085', '2 Beds': '$1,250 – 1,375'}",,1070.0,1312.5,,,40.3634796,-80.0176544
95,95,https://www.apartments.com/3030-south-water-apartments-pittsburgh-pa/h7w8hz0/,3030 South Water Apartments,,"3030 S Water St, Pittsburgh, PA 15203",2 wks Ago,"$1,310 - 1,475",1 Bed,,412-499-3353,5.0,,60,Somewhat Walkable,52,Good Transit,"{'1 Bed': '$1,310 – 1,475'}",,1392.5,,,,40.42567160000001,-79.9606249
96,96,https://www.apartments.com/whitehall-place-pittsburgh-pa/0tgw3s1/,Whitehall Place,Drucker + Falk,"1553 Parkline Dr, Pittsburgh, PA 15227",New,$457 - 864,Studio - 3 Bed,,844-484-0950,2.9,9 Renter Reviews,26,Car-Dependent,37,Some Transit,"{'Studio': '$457 – 504', '1 Bed': '$550 – 638', '2 Beds': '$716 – 731', '3 Beds': '$777 – 864'}",480.5,594.0,723.5,820.5,,40.3657377,-79.9682278
97,97,https://www.apartments.com/the-docks-pittsburgh-pa/wjt971j/,The Docks,Berkshire,"501 Riverfront Dr, Pittsburgh, PA 15238",New,"$1,320 - 2,982",1-3 Bed,,844-278-3009,5.0,1 Renter Reviews,35,Car-Dependent,41,Some Transit,"{'1 Bed': '$1,320 – 2,206', '2 Beds': '$1,568 – 2,982', '3 Beds': 'Call for Rent'}",,1763.0,2275.0,,,40.4854322,-79.8752544
98,98,https://www.apartments.com/laurel-village-apartments-pittsburgh-pa/f2db0nv/,Laurel Village Apartments,Dreyfuss Management,"1000 Penn Center Blvd, Pittsburgh, PA 15235",New,"$940 - 1,220",Studio - 2 Bed,,412-357-5646,5.0,5 Renter Reviews,43,Car-Dependent,30,Some Transit,"{'Studio': 'Call for Rent', '1 Bed': '$940 – 1,010', '2 Beds': '$1,100 – 1,220'}",,975.0,1160.0,,,40.425973,-79.81295200000001
99,100,https://www.apartments.com/westpointe-apartment-homes-pittsburgh-pa/vgmf5zd/,Westpointe Apartment Homes,Morgan Properties,"2000 Westpointe Dr, Pittsburgh, PA 15205",New,"$890 - 1,508",1-3 Bed,,877-627-8509,4.9,4 Renter Reviews,40,Car-Dependent,34,Some Transit,"{'1 Bed': '$890 – 1,042', '2 Beds': '$1,050 – 1,335', '3 Beds': '$1,385 – 1,508'}",,966.0,1192.5,1446.5,,40.4510513,-80.15232189999999
100,101,https://www.apartments.com/bellevue-apartments-pittsburgh-pa/4y3r1ll/,Bellevue Apartments,Prudential Realty Company,"88 Sheridan Ave, Pittsburgh, PA 15202",5 hrs Ago,$635 - 710,1-2 Bed,,844-367-5260,4.0,,75,Very Walkable,41,Some Transit,"{'1 Bed': '$635 – 660', '2 Beds': '$710'}",,647.5,710.0,,,40.493676,-80.05720319999999
101,102,https://www.apartments.com/highland-park-club-apartments-pittsburgh-pa/qpr93dw/,Highland Park Club Apartments,,"1001 N Negley Ave, Pittsburgh, PA 15206",New,"$1,175 - 1,325",1-2 Bed,,412-436-5519,4.0,1 Renter Reviews,64,Somewhat Walkable,48,Some Transit,"{'1 Bed': '$1,175', '2 Beds': '$1,325'}",,1175.0,1325.0,,,40.4743474,-79.9251474
102,103,https://www.apartments.com/walnut-on-highland-pittsburgh-pa/nrrw3wp/,Walnut on Highland,Walnut Capital,"121 S Highland Ave, Pittsburgh, PA 15206",New,"$1,403 - 2,497",Studio - 3 Bed,,412-308-5384,5.0,,95,Walker's Paradise,70,Excellent Transit,"{'Studio': '$1,403 – 2,093', '1 Bed': '$1,547 – 2,497', '2 Beds': 'Call for Rent', '3 Beds': 'Call for Rent'}",1748.0,2022.0,,,,40.46065979999999,-79.9247889
103,104,https://www.apartments.com/club-at-north-hills-apartment-homes-pittsburgh-pa/m35tbqk/,Club at North Hills Apartment Homes,Morgan Properties,"700 Duncan Ave, Pittsburgh, PA 15237",New,"$975 - 2,089",1-2 Bed,,866-719-3405,4.8,17 Renter Reviews,52,Somewhat Walkable,32,Some Transit,"{'1 Bed': '$975 – 1,283', '2 Beds': '$1,425 – 2,089'}",,1129.0,1757.0,,,40.5676047,-80.01814
104,105,https://www.apartments.com/morrow-park-city-apartments-pittsburgh-pa/xpg1ngq/,Morrow Park City Apartments,Village Green,"5250 Liberty Ave, Pittsburgh, PA 15224",New,"$1,255 - 3,660",Studio - 3 Bed,,412-347-1025,5.0,1 Renter Reviews,90,Walker's Paradise,70,Excellent Transit,"{'Studio': '$1,255 – 1,675', '1 Bed': '$1,515 – 2,375', '2 Beds': '$2,030 – 3,090', '3 Beds': '$2,850 – 3,660'}",1465.0,1945.0,2560.0,3255.0,,40.4569038,-79.94064949999999
105,106,https://www.apartments.com/hot-metal-flats-pittsburgh-pa/bgv9178/,Hot Metal Flats,Walnut Capital,"2915 Sidney St, Pittsburgh, PA 15203",4 hrs Ago,"$1,302 - 3,112",Studio - 2 Bed,,412-419-1366,5.0,,72,Very Walkable,58,Good Transit,"{'Studio': '$1,302 – 1,747', '1 Bed': '$1,632 – 2,377', '2 Beds': '$2,212 – 3,112'}",1524.5,2004.5,2662.0,,,40.426427,-79.9625042
106,107,https://www.apartments.com/coda-on-centre-pittsburgh-pa/y9dvdqv/,Coda on Centre,Oxford Development Company,"5765 Centre Ave, Pittsburgh, PA 15206",New,"$1,390 - 4,709",Studio - 2 Bed,,844-845-4811,5.0,,94,Walker's Paradise,71,Excellent Transit,"{'Studio': '$1,390 – 2,581', '1 Bed': '$1,615 – 3,640', '2 Beds': '$2,600 – 4,709'}",1985.5,2627.5,3654.5,,,40.4581623,-79.9320418
107,108,https://www.apartments.com/highland-village-pittsburgh-pa/y6kp5mt/,Highland Village,Walnut Capital,"450 Highland Ave, Pittsburgh, PA 15229",New,"$1,835 - 3,255",2-3 Bed,,844-874-5873,5.0,,8,Car-Dependent,29,Some Transit,"{'2 Beds': '$1,835 – 2,995', '3 Beds': '$2,090 – 3,255'}",,,2415.0,2672.5,,40.5249877,-80.0449024
108,109,https://www.apartments.com/highland-plaza-apartments-pittsburgh-pa/8nr7t31/,Highland Plaza Apartments,,"301 S Highland Ave, Pittsburgh, PA 15206",7 hrs Ago,"$1,300 - 2,000",1-3 Bed,,844-661-9858,4.0,2 Renter Reviews,93,Walker's Paradise,71,Excellent Transit,"{'1 Bed': '$1,300', '2 Beds': '$1,480 – 1,800', '3 Beds': '$2,000'}",,1300.0,1640.0,2000.0,,40.4570358,-79.924866
109,110,https://www.apartments.com/governors-ridge-apartments-townhomes-pittsburgh-pa/hgp33k0/,Governors Ridge Apartments & Townhomes,Morgan Properties,"112 Hilands Pl, Pittsburgh, PA 15237",4 hrs Ago,"$890 - 1,251",2-3 Bed,,844-304-1892,3.9,5 Renter Reviews,48,Car-Dependent,33,Some Transit,"{'2 Beds': '$890 – 1,251', '3 Beds': 'Call for Rent'}",,,1070.5,,,40.5164044,-80.0027231
110,111,https://www.apartments.com/morgan-at-north-shore-pittsburgh-pa/5bgqxtq/,Morgan at North Shore,,"100 Anderson St, Pittsburgh, PA 15212",New,"$1,360 - 2,205",1-2 Bed,,888-353-5443,5.0,7 Renter Reviews,90,Walker's Paradise,94,Rider's Paradise,"{'1 Bed': '$1,360 – 1,596', '2 Beds': '$1,805 – 2,205'}",,1478.0,2005.0,,,40.4483913,-79.9998535
111,112,https://www.apartments.com/cliffside-manor-apartments-pittsburgh-pa/wgqlw2l/,Cliffside Manor Apartments,,"200 Cliffside Manor Dr, Pittsburgh, PA 15202",9 hrs Ago,$800,1 Bed,,844-264-3671,4.0,9 Renter Reviews,41,Car-Dependent,28,Some Transit,{'1 Bed': '$800'},,800.0,,,,40.5076751,-80.09373540000001
112,113,https://www.apartments.com/the-rockwel-rockwel-realty-leasing-pittsburgh-pa/8bj3yk3/,The Rockwel - Rockwel Realty Leasing,Rockwel Realty,"430 Shady Ave, Pittsburgh, PA 15206",New,"$1,395 - 2,500",1-2 Bed,,844-845-8849,5.0,1 Renter Reviews,91,Walker's Paradise,70,Excellent Transit,"{'1 Bed': '$1,595 – 1,695', '2 Beds': '$1,395 – 2,500'}",,1645.0,1947.5,,,40.45485679999999,-79.92230219999999
113,114,https://www.apartments.com/the-royal-plaza-rockwel-realty-leasing-pittsburgh-pa/3s5lycg/,The Royal Plaza Rockwel Realty Leasing,Rockwel Realty,"5506 5th Ave, Pittsburgh, PA 15232",New,"$1,350 - 1,850",2-3 Bed,,844-219-2318,4.0,,87,Very Walkable,70,Excellent Transit,"{'2 Beds': '$1,350 – 1,550', '3 Beds': '$1,850'}",,,1450.0,1850.0,,40.4487073,-79.9319359
114,115,https://www.apartments.com/eastside-bond-pittsburgh-pa/cj0pksg/,Eastside Bond,McKinney Properties,"6105 Spirit St, Pittsburgh, PA 15206",New,"$1,468 - 3,823",Studio - 2 Bed,,844-378-8494,5.0,,95,Walker's Paradise,71,Excellent Transit,"{'Studio': '$1,468 – 1,616', '1 Bed': '$1,719 – 3,239', '2 Beds': '$2,228 – 3,823'}",1542.0,2479.0,3025.5,,,40.459883,-79.923014
115,116,https://www.apartments.com/crawford-square-apartments-pittsburgh-pa/q5w7s4y/,Crawford Square Apartments,McCormack Baron Salazar,"510 Protectory Pl, Pittsburgh, PA 15219",1 day Ago,"$1,160 - 2,050",1-3 Bed,,412-567-5423,5.0,,89,Very Walkable,91,Rider's Paradise,"{'1 Bed': '$1,160 – 1,225', '2 Beds': '$1,325 – 1,795', '3 Beds': '$1,860 – 2,050'}",,1192.5,1560.0,1955.0,,40.4420597,-79.9851619
116,117,https://www.apartments.com/grandview-pointe-apartments-pittsburgh-pa/5k0yx4p/,Grandview Pointe Apartments,McKinney Properties,"1411 Grandview Ave, Pittsburgh, PA 15211",1 day Ago,"$1,505 - 2,363",1-2 Bed,,877-340-0934,4.9,3 Renter Reviews,56,Somewhat Walkable,69,Good Transit,"{'1 Bed': '$1,505 – 1,892', '2 Beds': '$1,533 – 2,363'}",,1698.5,1948.0,,,40.4386441,-80.0213101
117,119,https://www.apartments.com/catalyst-lofts-pittsburgh-pa/0v7q7s3/,Catalyst Lofts,,"141 41st St, Pittsburgh, PA 15201",1 day Ago,"$1,300 - 2,500",1-3 Bed,,844-814-6608,5.0,,77,Very Walkable,50,Good Transit,"{'1 Bed': '$1,300 – 1,850', '2 Beds': '$1,750 – 2,500', '3 Beds': '$1,750 – 2,500'}",,1575.0,2125.0,2125.0,,40.4708126,-79.9627665
118,120,https://www.apartments.com/wendover-pittsburgh-pa/l55ygwf/,Wendover,,"5562 Hobart St, Pittsburgh, PA 15217",1 day Ago,"$980 - 1,575",Studio - 2 Bed,,412-357-4925,3.0,,78,Very Walkable,53,Good Transit,"{'Studio': '$980', '1 Bed': '$1,125 – 1,270', '2 Beds': '$1,325 – 1,575'}",980.0,1197.5,1450.0,,,40.4320375,-79.9286585
119,121,https://www.apartments.com/morewood-court-pittsburgh-pa/qkwekrw/,Morewood Court,,"319-323 Morewood Ave, Pittsburgh, PA 15213",New,$885 - 950,1 Bed,,844-784-1303,4.0,,91,Walker's Paradise,72,Excellent Transit,{'1 Bed': '$885 – 950'},,917.5,,,,40.4537345,-79.9438187
120,122,https://www.apartments.com/ellsworth-towers-pittsburgh-pa/sr1w287/,Ellsworth Towers,,"5700 Ellsworth Ave, Pittsburgh, PA 15232",New,$755 - 955,Studio - 1 Bed,,844-888-0133,4.0,,97,Walker's Paradise,73,Excellent Transit,"{'Studio': '$755', '1 Bed': '$955'}",755.0,955.0,,,,40.454669,-79.93211989999999
121,123,https://www.apartments.com/morrowfield-pittsburgh-pa/34lt28g/,Morrowfield,,"2715 Murray Ave, Pittsburgh, PA 15217",2 days Ago,"$930 - 1,295",Studio - 1 Bed,,844-404-5887,5.0,,87,Very Walkable,52,Good Transit,"{'Studio': '$930 – 1,055', '1 Bed': '$980 – 1,295'}",992.5,1137.5,,,,40.4283796,-79.9242828
122,124,https://www.apartments.com/arlington-pittsburgh-pa/pr2nf1t/,Arlington,,"515 S Aiken Ave, Pittsburgh, PA 15232",New,"$910 - 1,385",Studio - 1 Bed,,844-482-7905,5.0,,94,Walker's Paradise,72,Excellent Transit,"{'Studio': '$910 – 970', '1 Bed': '$1,260 – 1,385'}",940.0,1322.5,,,,40.4556811,-79.9380454
123,125,https://www.apartments.com/river-oaks-community-pittsburgh-pa/wyqj97h/,River Oaks Community,,"1 Oakhurst Cir, Pittsburgh, PA 15215",6 days Ago,"$940 - 2,300",1-4 Bed,,412-626-5791,5.0,,36,Car-Dependent,39,Some Transit,"{'1 Bed': '$940', '2 Beds': '$1,140 – 1,240', '3 Beds': '$1,340 – 1,540', '4 Beds': '$2,300'}",,940.0,1190.0,1440.0,2300.0,40.4976855,-79.9058299
124,126,https://www.apartments.com/redstone-place-pittsburgh-pa/rqd9zm0/,RedStone Place,,"265 46th St, Pittsburgh, PA 15201",1 wk Ago,"$1,150",1-2 Bed,,844-857-0233,2.1,3 Renter Reviews,81,Very Walkable,51,Good Transit,"{'1 Bed': '$1,150', '2 Beds': '$1,150'}",,1150.0,1150.0,,,40.4716649,-79.95629799999999
125,127,https://www.apartments.com/whitney-hall-apartments-pittsburgh-pa/z8tg6ww/,Whitney Hall Apartments,,"418 Whitney Ave, Pittsburgh, PA 15221",1 wk Ago,$879,2 Bed,,412-253-6901,4.0,10 Renter Reviews,64,Somewhat Walkable,63,Good Transit,{'2 Beds': '$879'},,,879.0,,,40.4372896,-79.8885648
126,128,https://www.apartments.com/mountvue-apartments-pittsburgh-pa/8vgwqd2/,Mountvue Apartments,,"5 Grandview Ave, Pittsburgh, PA 15211",1 wk Ago,"$1,050 - 2,400",Studio - 2 Bed,,844-681-2898,4.0,2 Renter Reviews,82,Very Walkable,82,Excellent Transit,"{'Studio': '$1,050 – 1,125', '1 Bed': '$1,250 – 1,400', '2 Beds': '$1,950 – 2,400'}",1087.5,1325.0,2175.0,,,40.43119739999999,-80.0063721
127,129,https://www.apartments.com/cloverleaf-towers-pittsburgh-pa/t8ygpv9/,Cloverleaf Towers,,"60 Clover Dr, Pittsburgh, PA 15236",1 wk Ago,"$750 - 1,200",1-3 Bed,,412-232-5109,4.0,1 Renter Reviews,52,Somewhat Walkable,44,Some Transit,"{'1 Bed': '$750 – 900', '2 Beds': '$850 – 1,100', '3 Beds': '$1,200'}",,825.0,975.0,1200.0,,40.3428243,-79.96519160000001
128,130,https://www.apartments.com/the-venue-pittsburgh-pa/6qp02ds/,The Venue,,"625 Stanwix St, Pittsburgh, PA 15222",2 wks Ago,"$1,595 - 2,295",2 Bed,,412-506-6882,5.0,1 Renter Reviews,97,Walker's Paradise,100,Rider's Paradise,"{'2 Beds': '$1,595 – 2,295'}",,,1945.0,,,40.4429623,-80.0047996
129,131,https://www.apartments.com/the-brew-house-pittsburgh-pa/97en2f7/,The Brew House,Trek Development Group,"711 S 21st St, Pittsburgh, PA 15203",2 wks Ago,"$1,100 - 2,300",1-2 Bed,,412-499-3917,5.0,,93,Walker's Paradise,58,Good Transit,"{'1 Bed': '$1,100 – 1,350', '2 Beds': '$2,100 – 2,300'}",,1225.0,2200.0,,,40.4255352,-79.9764019
130,132,https://www.apartments.com/the-evalee-apartments-pittsburgh-pa/4vvnhrh/,The Evalee Apartments,JoCo Partners,"5 Dorchester Dr, Pittsburgh, PA 15241",2 wks Ago,"$945 - 1,620",1-2 Bed,,844-274-9864,4.8,1 Renter Reviews,62,Somewhat Walkable,52,Good Transit,"{'1 Bed': '$945 – 995', '2 Beds': '$1,135 – 1,620'}",,970.0,1377.5,,,40.340319,-80.0508258
131,133,https://www.apartments.com/webster-hall-pittsburgh-pa/bd2hm3b/,Webster Hall,,"101 N Dithridge St, Pittsburgh, PA 15213",2 wks Ago,"$1,134 - 2,448",Studio - 3 Bed,,844-866-8124,5.0,,91,Walker's Paradise,71,Excellent Transit,"{'Studio': '$1,134 – 1,178', '1 Bed': '$1,331 – 1,603', '2 Beds': '$1,705 – 2,027', '3 Beds': '$2,423 – 2,448'}",1156.0,1467.0,1866.0,2435.5,,40.4471576,-79.9512716
132,134,https://www.apartments.com/pleasantview-place-pgh-pa/7v87dzx/,Pleasantview Place,,"1000 Wingate Dr, Pgh, PA 15205",2 wks Ago,"$1,050 - 1,400",1-2 Bed,,412-385-2772,4.0,2 Renter Reviews,9,Car-Dependent,20,Minimal Transit,"{'1 Bed': '$1,050 – 1,100', '2 Beds': '$1,200 – 1,400'}",,1075.0,1300.0,,,40.444516,-80.1138508
133,135,https://www.apartments.com/amberson-gardens-pittsburgh-pa/w2vgfbj/,Amberson Gardens,,"1-4 Bayard Rd, Pittsburgh, PA 15213",2 wks Ago,"$875 - 1,370",Studio - 2 Bed,,844-783-3361,4.0,2 Renter Reviews,79,Very Walkable,72,Excellent Transit,"{'Studio': '$875', '1 Bed': '$980 – 1,010', '2 Beds': '$1,370'}",875.0,995.0,1370.0,,,40.4532837,-79.94240789999999
134,136,https://www.apartments.com/the-flats-at-southside-works-pittsburgh-pa/099wh00/,The Flats at SouthSide Works,Soffer Organization,"2603-2655 E Carson St, Pittsburgh, PA 15203",2 wks Ago,"$1,270 - 2,200",1-2 Bed,,412-567-6659,4.9,5 Renter Reviews,89,Very Walkable,65,Good Transit,"{'1 Bed': '$1,270 – 1,445', '2 Beds': '$1,900 – 2,200'}",,1357.5,2050.0,,,40.4276356,-79.9681619
135,137,https://www.apartments.com/the-woodhawk-club-pittsburgh-pa/cwgdbxe/,The Woodhawk Club,,"1000 Johnanna Dr, Pittsburgh, PA 15237",2 wks Ago,"$868 - 1,349",1-2 Bed,,844-263-3864,5.0,1 Renter Reviews,38,Car-Dependent,33,Some Transit,"{'1 Bed': '$868 – 1,000', '2 Beds': '$1,018 – 1,349'}",,934.0,1183.5,,,40.5468851,-80.01248869999999
136,138,https://www.apartments.com/st-clair-woods-apartments-pittsburgh-pa/cp673fe/,St. Clair Woods Apartments,,"1000 Painters Dr, Pittsburgh, PA 15228",2 wks Ago,$875 - 975,2 Bed,,844-274-9865,4.0,5 Renter Reviews,10,Car-Dependent,22,Minimal Transit,{'2 Beds': '$875 – 975'},,,925.0,,,40.361996,-80.068642
137,139,https://www.apartments.com/the-forest-apartments-pittsburgh-pa/vc35qxg/,The Forest Apartments,,"801 Smokey Wood Dr, Pittsburgh, PA 15218",2 wks Ago,$780 - 885,1-2 Bed,,412-345-8290,4.0,1 Renter Reviews,49,Car-Dependent,47,Some Transit,"{'1 Bed': '$780 – 795', '2 Beds': '$885'}",,787.5,885.0,,,40.4246245,-79.8756667
138,140,https://www.apartments.com/fairfax-apartments-pittsburgh-pa/ydfmv1s/,Fairfax Apartments,Beacon Communities LLC,"4614 5th Ave, Pittsburgh, PA 15213",2 wks Ago,"$1,215",Studio,,844-361-5671,5.0,,89,Very Walkable,71,Excellent Transit,"{'Studio': '$1,215'}",1215.0,,,,,40.4468557,-79.94813359999999
139,141,https://www.apartments.com/devon-towers-pittsburgh-pa/r9y0cp1/,Devon Towers,"NDC Real Estate, LLC","4920 CENTRE Ave, Pittsburgh, PA 15213",2 wks Ago,"$999 - 1,150",Studio - 2 Bed,,844-248-8214,4.0,,82,Very Walkable,71,Excellent Transit,"{'Studio': '$999', '2 Beds': '$1,150'}",999.0,,1150.0,,,40.4535432,-79.945458
140,142,https://www.apartments.com/hoodridge-court-apartments-and-townhomes-pittsburgh-pa/gxw6d9w/,Hoodridge Court Apartments and Townhomes,Union Real Estate Company,"452 Hoodridge Dr, Pittsburgh, PA 15234",2 wks Ago,$590 - 865,Studio - 2 Bed,,412-357-2889,4.0,3 Renter Reviews,54,Somewhat Walkable,54,Good Transit,"{'Studio': '$590', '1 Bed': '$705 – 720', '2 Beds': '$820 – 865'}",590.0,712.5,842.5,,,40.3672146,-80.03295229999999
141,143,https://www.apartments.com/ambassador-apartments-pittsburgh-pa/ve0f53d/,Ambassador Apartments,Union Real Estate Company,"4733 Centre Ave, Pittsburgh, PA 15213",2 wks Ago,$845 - 990,Studio - 1 Bed,,844-480-0227,4.0,1 Renter Reviews,89,Very Walkable,68,Good Transit,"{'Studio': '$845', '1 Bed': '$970 – 990'}",845.0,980.0,,,,40.4532598,-79.9486026
142,144,https://www.apartments.com/colony-east-townhomes-pittsburgh-pa/h70hwy3/,Colony East Townhomes,,"15 Boulder Dr, Pittsburgh, PA 15239",2 wks Ago,$730 - 910,2 Bed,,844-287-6161,4.0,1 Renter Reviews,25,Car-Dependent,28,Some Transit,{'2 Beds': '$730 – 910'},,,820.0,,,40.4867094,-79.7798234
143,145,https://www.apartments.com/brinton-manor-pittsburgh-pa/wzthtkl/,Brinton Manor,,"3000 Locust St, Pittsburgh, PA 15221",2 wks Ago,$525 - 635,1-2 Bed,,412-329-4763,5.0,,39,Car-Dependent,44,Some Transit,"{'1 Bed': '$525', '2 Beds': '$635'}",,525.0,635.0,,,40.4099094,-79.8525631
144,146,https://www.apartments.com/northway-apartments-pittsburgh-pa/0fgsrw1/,Northway Apartments,Union Real Estate Company,"451 Browns Ln, Pittsburgh, PA 15237",2 wks Ago,$770,1 Bed,,412-536-5668,4.0,2 Renter Reviews,58,Somewhat Walkable,33,Some Transit,{'1 Bed': '$770'},,770.0,,,,40.5501157,-80.0230958
145,147,https://www.apartments.com/williamsburg-south-pittsburgh-pa/nw9njzm/,Williamsburg South,"NDC Real Estate, LLC","401-435 Abbeyville Rd, Pittsburgh, PA 15228",2 wks Ago,$755 - 995,1-2 Bed,,844-702-2096,4.0,2 Renter Reviews,58,Somewhat Walkable,49,Some Transit,"{'1 Bed': '$755 – 825', '2 Beds': '$885 – 995'}",,790.0,940.0,,,40.3511117,-80.0472289
146,148,https://www.apartments.com/greenbriar-village-pittsburgh-pa/m8lxvch/,Greenbriar Village,Union Real Estate Company,"1701 Greenvalley Dr, Pittsburgh, PA 15220",2 wks Ago,"$985 - 1,650",1-3 Bed,,412-568-3137,4.0,2 Renter Reviews,32,Car-Dependent,31,Some Transit,"{'1 Bed': '$985', '2 Beds': '$1,050 – 1,120', '3 Beds': '$1,450 – 1,650'}",,985.0,1085.0,1550.0,,40.3979919,-80.06179829999999
147,149,https://www.apartments.com/southpointe-towers-pittsburgh-pa/rpzl7s2/,Southpointe Towers,,"100 Cerasi Dr, Pittsburgh, PA 15122",2 wks Ago,"$670 - 1,249",1-3 Bed,,844-222-0127,4.0,2 Renter Reviews,14,Car-Dependent,41,Some Transit,"{'1 Bed': '$670 – 720', '2 Beds': '$825 – 1,249', '3 Beds': '$1,025'}",,695.0,1037.0,1025.0,,40.331128,-79.9403804
148,150,https://www.apartments.com/terrain-apartments-pittsburgh-pa/0rhljn2/,Terrain Apartments,,"700 Mansfield Ave, Pittsburgh, PA 15205",2 wks Ago,"$1,195",2 Bed,,412-924-8122,4.9,6 Renter Reviews,27,Car-Dependent,35,Some Transit,"{'2 Beds': '$1,195'}",,,1195.0,,,40.4173983,-80.06513
149,151,https://www.apartments.com/douglas-plaza-pittsburgh-pa/9sdcyc6/,Douglas Plaza,,"2405-2407 Laketon Rd, Pittsburgh, PA 15221",2 wks Ago,$620 - 770,Studio - 1 Bed,,844-592-0991,1.0,1 Renter Reviews,26,Car-Dependent,38,Some Transit,"{'Studio': '$620', '1 Bed': '$750 – 770'}",620.0,760.0,,,,40.4549287,-79.8599989
150,152,https://www.apartments.com/the-waterfront-munhall-pa/8gvtzh1/,The Waterfront,Berkshire,"611 E Waterfront Dr, Munhall, PA 15120",4 hrs Ago,"$1,392 - 2,559",1-3 Bed,,412-368-9408,5.0,,52,Somewhat Walkable,48,Some Transit,"{'1 Bed': '$1,392 – 2,033', '2 Beds': '$1,473 – 2,200', '3 Beds': '$2,003 – 2,559'}",,1712.5,1836.5,2281.0,,40.4143158,-79.9052768
151,159,https://www.apartments.com/maiden-bridge-canongate-apartments-pittsburgh-pa/qvg2rkx/,Maiden Bridge & Canongate Apartments,,"100 White Hampton Ln, Pittsburgh, PA 15236",New,"$1,072 - 3,300",Studio - 3 Bed,Available Now,844-808-3937,5.0,1 Renter Reviews,16,Car-Dependent,39,Some Transit,"{'Studio': '$1,486 – 1,927', '1 Bed': '$1,072 – 1,891', '2 Beds': '$1,313 – 2,443', '3 Beds': '$1,807 – 3,300'}",1706.5,1481.5,1878.0,2553.5,,40.3639882,-79.99729669999999
152,160,https://www.apartments.com/brittany-apartments-pittsburgh-pa/sng0556/,Brittany Apartments,,"1717 Penn Ave, Pittsburgh, PA 15221",10 hrs Ago,$657 - 912,Studio - 2 Bed,Available Now,800-821-6149,4.0,1 Renter Reviews,35,Car-Dependent,43,Some Transit,"{'Studio': '$657 – 707', '1 Bed': '$860', '2 Beds': '$912'}",682.0,860.0,912.0,,,40.4440053,-79.86587519999999
153,161,https://www.apartments.com/royal-manor-apartments-pittsburgh-pa/l8pvqdd/,Royal Manor Apartments,,"8900 Royal Manor Dr, Pittsburgh, PA 15101",10 hrs Ago,"$885 - 1,330",1-3 Bed,Available 04/10/20,844-319-9726,4.9,5 Renter Reviews,31,Car-Dependent,28,Some Transit,"{'1 Bed': '$885 – 1,130', '2 Beds': '$1,120 – 1,200', '3 Beds': '$1,300 – 1,330'}",,1007.5,1160.0,1315.0,,40.5672243,-80.0026766
154,162,https://www.apartments.com/101-central-sq-pittsburgh-pa/d8kq2ml/,101 Central Sq,,"101 Central Sq, Pittsburgh, PA 15228",New,"$750 - 1,175",Studio - 2 Bed,Available Now,724-915-1881,4.0,,84,Very Walkable,48,Some Transit,"{'Studio': '$750', '1 Bed': '$815 – 875', '2 Beds': '$1,100 – 1,175'}",750.0,845.0,1137.5,,,40.3801139,-80.04408339999999
155,163,https://www.apartments.com/wellington-one-pittsburgh-pa/s79lhw6/,Wellington One,,"153 Schwitter Ave, Pittsburgh, PA 15229",2 days Ago,"$1,000",2 Bed,Available Now,844-503-5882,4.0,2 Renter Reviews,60,Somewhat Walkable,35,Some Transit,"{'2 Beds': '$1,000'}",,,1000.0,,,40.52337,-80.033372
156,164,https://www.apartments.com/luna-lofts-pittsburgh-pa/f3hl5hs/,LUNA Lofts,,"410-416 N Craig St, Pittsburgh, PA 15213",6 days Ago,"$1,260 - 1,990",1-3 Bed,Available 03/16/20,412-837-3393,5.0,2 Renter Reviews,84,Very Walkable,69,Good Transit,"{'1 Bed': '$1,260', '2 Beds': '$1,465 – 1,840', '3 Beds': '$1,990'}",,1260.0,1652.5,1990.0,,40.4543418,-79.9538682
157,165,https://www.apartments.com/may-building-apartments-pittsburgh-pa/knhfyfc/,May Building Apartments,,"529 Liberty Ave, Pittsburgh, PA 15222",1 wk Ago,$775 - 915,Studio - 1 Bed,Available 12/31/20,844-898-8064,4.0,,100,Walker's Paradise,100,Rider's Paradise,"{'Studio': '$775', '1 Bed': '$915'}",775.0,915.0,,,,40.4419827,-80.0027139
158,166,https://www.apartments.com/southcrest-heights-pittsburgh-pa/rtlzex2/,Southcrest Heights,,"631 Southcrest Dr, Pittsburgh, PA 15226",1 wk Ago,"$740 - 1,060",1-3 Bed,Available Now,844-213-4502,4.0,,22,Car-Dependent,61,Good Transit,"{'1 Bed': '$740 – 840', '2 Beds': '$850 – 945', '3 Beds': '$1,030 – 1,060'}",,790.0,897.5,1045.0,,40.4074093,-80.0130386
159,167,https://www.apartments.com/ambassador-apartments-pittsburgh-pa/w9kbbch/,Ambassador Apartments,,"1601 Penn Ave, Pittsburgh, PA 15221",2 wks Ago,$825 - 895,1-2 Bed,Available Now,844-218-9867,4.0,4 Renter Reviews,32,Car-Dependent,45,Some Transit,"{'1 Bed': '$825', '2 Beds': '$895'}",,825.0,895.0,,,40.4432315,-79.8675619
160,168,https://www.apartments.com/sleepy-hollow-road-apartments-pittsburgh-pa/4py0wfl/,Sleepy Hollow Road Apartments,,"821-831 Sleepy Hollow Rd, Pittsburgh, PA 15234",2 wks Ago,$625 - 675,1 Bed,Not Available,412-329-4797,4.0,2 Renter Reviews,28,Car-Dependent,47,Some Transit,{'1 Bed': '$625 – 675'},,650.0,,,,40.3741248,-80.020888
161,169,https://www.apartments.com/sleepy-hollow-road-apartments-pittsburgh-pa/4py0wfl/,Sleepy Hollow Road Apartments,,"821-831 Sleepy Hollow Rd, Pittsburgh, PA 15234",2 wks Ago,$625 - 675,1 Bed,Not Available,412-329-4797,4.0,2 Renter Reviews,28,Car-Dependent,47,Some Transit,{'1 Bed': '$625 – 675'},,650.0,,,,40.3741248,-80.020888
162,170,https://www.apartments.com/essex-house-apartments-pittsburgh-pa/jlg7se5/,Essex House Apartments,,"5701 Centre Ave, Pittsburgh, PA 15206",2 wks Ago,"$1,240 - 1,850",1-2 Bed,Available Soon,844-632-4615,5.0,1 Renter Reviews,96,Walker's Paradise,71,Excellent Transit,"{'1 Bed': '$1,240 – 1,560', '2 Beds': '$1,530 – 1,850'}",,1400.0,1690.0,,,40.4576924,-79.9335078
163,171,https://www.apartments.com/negley-gardens-apartments-pittsburgh-pa/w70z6rl/,Negley Gardens Apartments,,"400 N Negley Ave, Pittsburgh, PA 15206",2 wks Ago,"$791 - 1,060",Studio - 2 Bed,Available 08/01/20,844-417-9457,4.0,,80,Very Walkable,64,Good Transit,"{'Studio': '$791', '1 Bed': '$796 – 895', '2 Beds': '$1,020 – 1,060'}",791.0,845.5,1040.0,,,40.4668121,-79.9282297
164,172,https://www.apartments.com/pendale-towers-pittsburgh-pa/n5e6hbm/,,,"460 Washington Rd, Pittsburgh, PA 15228",2 wks Ago,"$950 - 1,600",1-2 Bed,Available Now,844-536-4314,5.0,2 Renter Reviews,81,Very Walkable,49,Some Transit,"{'1 \t\t\t\t\t\t\t\t\t\t\t\t\t\t\t\t–\r\n2 Beds': '$950 – 1,185', '2 Beds': '$1,250 – 1,600'}",,,1425.0,,,40.3848869,-80.0443178
165,173,https://www.apartments.com/the-reserve-at-summerset-at-frick-park-pittsburgh-pa/wm9hrck/,The Reserve at Summerset at Frick Park,,"1435 Parkview Blvd, Pittsburgh, PA 15217",2 wks Ago,"$2,030",2 Bed,Available 05/15/20,844-564-8456,5.0,,11,Car-Dependent,40,Some Transit,"{'2 Beds': '$2,030'}",,,2030.0,,,40.4196073,-79.9163624
166,174,https://www.apartments.com/brinton-towers-pittsburgh-pa/5wq9geq/,Brinton Towers,,"3000 Locust St, Pittsburgh, PA 15221",2 wks Ago,Call for Rent,Studio - 1 Bed,Not Available,412-688-6259,4.0,,50,Somewhat Walkable,44,Some Transit,{'Studio\r\n\t\t\t\t\t\t\t\t\t\t\t\t\t\t–\r\n1 Bed': 'Call for Rent'},,,,,,40.4099094,-79.8525631
167,175,https://www.apartments.com/velma-court-pittsburgh-pa/rmx1hj1/,Velma Court,,"772 Greenfield Ave, Pittsburgh, PA 15217",2 wks Ago,$595 - 898,Studio - 2 Bed,Available Soon,844-203-8541,4.0,,69,Somewhat Walkable,46,Some Transit,"{'Studio': '$595', '1 Bed': '$645 – 770', '2 Beds': '$898'}",595.0,707.5,898.0,,,40.423949,-79.937536
168,176,https://www.apartments.com/greenhill-apartments-pittsburgh-pa/k7plz38/,Greenhill Apartments,,"4221 Winterburn Ave, Pittsburgh, PA 15207",2 wks Ago,$845 - 965,1-2 Bed,Not Available,724-519-0150,4.0,,66,Somewhat Walkable,46,Some Transit,"{'1 Bed': '$845', '2 Beds': '$965'}",,845.0,965.0,,,40.4227298,-79.9391631
169,177,https://www.apartments.com/claybourne-apartments-pittsburgh-pa/edpzvdn/,Claybourne Apartments,,"5435 Claybourne St, Pittsburgh, PA 15232",2 wks Ago,"$1,265 - 1,795",2 Bed,Available 03/10/20,412-924-8013,4.0,,95,Walker's Paradise,73,Excellent Transit,"{'2 Beds': '$1,265 – 1,795'}",,,1530.0,,,40.4555197,-79.9365401
170,178,https://www.apartments.com/seville-square-apartments-pittsburgh-pa/6m49dmt/,Seville Square Apartments,,"4297 Greensburg Pike, Pittsburgh, PA 15221",2 wks Ago,"$610 - 1,255",Studio - 3 Bed,Available Soon,844-712-9020,5.0,,39,Car-Dependent,34,Some Transit,"{'Studio': '$610 – 640', '1 Bed': '$670 – 725', '2 Beds': '$845 – 875', '3 Beds': '$1,255'}",625.0,697.5,860.0,1255.0,,40.4188209,-79.83971269999999
171,179,https://www.apartments.com/oakland-bates-apartments-pittsburgh-pa/g5w6zkx/,Oakland-Bates Apartments,,"403 Oakland Ave, Pittsburgh, PA 15213",2 wks Ago,"$690 - 2,700",Studio - 4 Bed,Available Soon,412-357-6678,4.0,,92,Walker's Paradise,69,Good Transit,"{'Studio': '$690', '1 Bed': '$745 – 805', '2 Beds': '$1,445', '4 Beds': '$2,700'}",690.0,775.0,1445.0,,2700.0,40.4385145,-79.9529146
172,180,https://www.apartments.com/oakland-bates-apartments-pittsburgh-pa/g5w6zkx/,Oakland-Bates Apartments,,"403 Oakland Ave, Pittsburgh, PA 15213",2 wks Ago,"$690 - 2,700",Studio - 4 Bed,Available Soon,412-357-6678,4.0,,92,Walker's Paradise,69,Good Transit,"{'Studio': '$690', '1 Bed': '$745 – 805', '2 Beds': '$1,445', '4 Beds': '$2,700'}",690.0,775.0,1445.0,,2700.0,40.4385145,-79.9529146
173,181,https://www.apartments.com/hampshire-house-pittsburgh-pa/crt7ete/,Hampshire House,,"195 Mount Lebanon Blvd, Pittsburgh, PA 15228",2 wks Ago,"$655 - 1,180",Studio - 3 Bed,Available Soon,844-225-6159,4.0,,59,Somewhat Walkable,49,Some Transit,"{'Studio': '$655 – 690', '1 Bed': '$895 – 935', '2 Beds': '$960 – 1,120', '3 Beds': '$1,150 – 1,180'}",672.5,915.0,1040.0,1165.0,,40.3683033,-80.0388102
174,182,https://www.apartments.com/frick-park-village-pittsburgh-pa/ldrlfyf/,Frick Park Village,,"208 Rebecca Ave, Pittsburgh, PA 15221",2 wks Ago,$775 - 895,1-2 Bed,Available Soon,844-304-1864,3.0,1 Renter Reviews,68,Somewhat Walkable,63,Good Transit,"{'1 Bed': '$775', '2 Beds': '$880 – 895'}",,775.0,887.5,,,40.4421722,-79.8934127
175,184,https://www.apartments.com/cedar-ridge-senior-apartments-pittsburgh-pa/psh8hvs/,Cedar Ridge Senior Apartments,,"200 Cedar Ridge Dr, Pittsburgh, PA 15205",2 wks Ago,"$1,160 - 1,375",1-2 Bed,Available Soon,844-391-0722,5.0,,15,Car-Dependent,22,Minimal Transit,"{'1 Bed': '$1,160', '2 Beds': '$1,270 – 1,375'}",,1160.0,1322.5,,,40.44740030000001,-80.1075245
176,185,https://www.apartments.com/hillcrest-apartments-pittsburgh-pa/g9dvfkw/,Hillcrest Apartments,,"13 Hillcrest Dr, Pittsburgh, PA 15202",2 wks Ago,$695 - 795,1-2 Bed,Available Soon,844-266-0145,4.0,2 Renter Reviews,48,Car-Dependent,37,Some Transit,"{'1 Bed': '$695', '2 Beds': '$795'}",,695.0,795.0,,,40.50569489999999,-80.0602809
177,186,https://www.apartments.com/greenview-apartments-pittsburgh-pa/zzcmdnx/,Greenview Apartments,,"6633 Saltsburg Rd, Pittsburgh, PA 15235",2 wks Ago,$595 - 695,1-2 Bed,Available Soon,844-750-4742,4.0,,37,Car-Dependent,28,Some Transit,"{'1 Bed': '$595', '2 Beds': '$695'}",,595.0,695.0,,,40.4816402,-79.8056883
178,187,https://www.apartments.com/brentwood-townhomes-brentwood-pa/3s2x5pf/,Brentwood Townhomes,,"3367 Jameson Dr, Brentwood, PA 15227",2 wks Ago,$800,2 Bed,Available Now,844-479-3425,4.0,1 Renter Reviews,69,Somewhat Walkable,43,Some Transit,{'2 Beds': '$800'},,,800.0,,,40.3731802,-79.9845548
